     2.100          NAVIGATION                              RINEX VERSION / TYPE
fic2rin                                 01/01/2011 00:15:14 PGM / RUN BY / DATE
                                                            END OF HEADER
17 10 12 31 14  0  0.0  .180807430297D-03  .682121026330D-12  .000000000000D+00
     .670000000000D+02 -.209375000000D+01  .489091801208D-08 -.208716632775D+01
    -.819563865662D-07  .589084241074D-02  .648759305477D-05  .515368760681D+04
     .482400000000D+06  .689178705215D-07  .742954929318D+00 -.558793544769D-07
     .960741758636D+00  .253468750000D+03 -.249010893739D+01 -.797176062726D-08
     .346800159904D-09  .100000000000D+01  .161600000000D+04  .000000000000D+00
     .240000000000D+01  .000000000000D+00 -.102445483208D-07  .670000000000D+02
     .475206000000D+06  .400000000000D+01
18 10 12 31 14  0  0.0  .113347079605D-03  .216004991671D-11  .000000000000D+00
     .450000000000D+02  .993437500000D+02  .494377735674D-08 -.768919426981D+00
     .521540641785D-05  .118202822050D-01  .909157097340D-05  .515376045227D+04
     .482400000000D+06  .912696123123D-07  .282927163959D+01  .249594449997D-06
     .934934218917D+00  .193031250000D+03 -.227752164954D+01 -.832177520677D-08
    -.241438628317D-09  .100000000000D+01  .161600000000D+04  .000000000000D+00
     .240000000000D+01  .000000000000D+00 -.107102096081D-07  .450000000000D+02
     .475206000000D+06  .400000000000D+01
19 10 12 31 14  0  0.0 -.971271656454D-04 -.352429196937D-11  .000000000000D+00
     .114000000000D+03  .100000000000D+01  .498235039204D-08 -.289576454470D+01
     .141561031342D-06  .684897287283D-02  .642612576485D-05  .515359581375D+04
     .482400000000D+06 -.134110450745D-06  .797392805742D+00  .745058059692D-08
     .958248922823D+00  .255781250000D+03 -.142847177130D-01 -.799461872225D-08
     .224652214809D-09  .100000000000D+01  .161600000000D+04  .000000000000D+00
     .240000000000D+01  .000000000000D+00 -.149011611938D-07  .114000000000D+03
     .475206000000D+06  .400000000000D+01
20 10 12 31 14  0  0.0  .489023514092D-04 -.113686837722D-12  .000000000000D+00
     .500000000000D+02  .109812500000D+03  .492984820511D-08 -.388935704459D+00
     .567361712456D-05  .457474833820D-02  .918097794056D-05  .515376719093D+04
     .482400000000D+06 -.167638063431D-07  .277535106563D+01  .707805156708D-07
     .934950997125D+00  .188500000000D+03  .125596492489D+01 -.823927177017D-08
    -.193222334200D-09  .100000000000D+01  .161600000000D+04  .000000000000D+00
     .240000000000D+01  .000000000000D+00 -.791624188423D-08  .500000000000D+02
     .475206000000D+06  .400000000000D+01
21 10 12 31 14  0  0.0 -.113318208605D-03 -.272848410532D-11  .000000000000D+00
     .550000000000D+02 -.821875000000D+01  .549522889834D-08  .484049810343D+00
    -.199303030968D-06  .170834137825D-01  .795535743237D-05  .515359448051D+04
     .482400000000D+06 -.137835741043D-06  .177394404650D+01  .253319740295D-06
     .931553046581D+00  .211093750000D+03 -.242265389301D+01 -.860500128999D-08
    -.622168772970D-09  .100000000000D+01  .161600000000D+04  .000000000000D+00
     .240000000000D+01  .000000000000D+00 -.116415321827D-07  .550000000000D+02
     .475206000000D+06  .400000000000D+01
22 10 12 31 14  0  0.0  .155932735652D-03 -.909494701773D-12  .000000000000D+00
     .620000000000D+02  .976250000000D+02  .483948729836D-08 -.163624305529D+01
     .502541661263D-05  .539431662764D-02  .904873013496D-05  .515372637939D+04
     .482400000000D+06  .139698386192D-06  .283371644408D+01  .577419996262D-07
     .932629748435D+00  .191906250000D+03 -.193375218904D+01 -.810283751571D-08
    -.228580949885D-09  .100000000000D+01  .161600000000D+04  .000000000000D+00
     .485000000000D+01  .000000000000D+00 -.176951289177D-07  .620000000000D+02
     .475206000000D+06  .400000000000D+01
23 10 12 31 14  0  0.0  .334948766977D-03 -.216004991671D-11  .000000000000D+00
     .780000000000D+02  .570312500000D+02  .451625954891D-08  .293438971181D+01
     .292249023914D-05  .692286831327D-02  .162795186043D-05  .515360747337D+04
     .482400000000D+06 -.124797224998D-06 -.241548421196D+01 -.540167093277D-07
     .966089018263D+00  .352437500000D+03  .313218958964D+01 -.826498712703D-08
     .778603860547D-10  .100000000000D+01  .161600000000D+04  .000000000000D+00
     .240000000000D+01  .000000000000D+00 -.200234353542D-07  .780000000000D+02
     .475206000000D+06  .400000000000D+01
24 10 12 31 14  0  0.0  .352600589395D-03  .329691829393D-11  .000000000000D+00
     .200000000000D+02  .881250000000D+01  .497985028790D-08  .232767639002D+01
     .534579157829D-06  .574243697338D-02  .851042568684D-05  .515372809982D+04
     .482400000000D+06  .558793544769D-07  .181629731989D+01  .182539224625D-06
     .948182045165D+00  .207062500000D+03 -.334855369602D+00 -.804104922769D-08
    -.530736393015D-09  .100000000000D+01  .161600000000D+04  .000000000000D+00
     .240000000000D+01  .000000000000D+00 -.139698386192D-08  .200000000000D+02
     .475206000000D+06  .400000000000D+01
25 10 12 31 14  0  0.0 -.610253773630D-04 -.216004991671D-11  .000000000000D+00
     .660000000000D+02 -.658437500000D+02  .426196324216D-08 -.126827192366D+01
    -.343471765518D-05  .453970278613D-03  .101234763861D-04  .515372736549D+04
     .482400000000D+06  .633299350739D-07 -.345249210913D+00  .372529029846D-08
     .962485350715D+00  .188531250000D+03  .169348450742D+01 -.777960976626D-08
     .375729936374D-09  .100000000000D+01  .161600000000D+04  .100000000000D+01
     .340000000000D+01  .000000000000D+00  .465661287308D-08  .660000000000D+02
     .475206000000D+06  .400000000000D+01
26 10 12 31 14  0  0.0 -.850893557072D-04 -.886757334229D-11  .000000000000D+00
     .100000000000D+03  .649375000000D+02  .385016037463D-08  .265587983747D+01
     .304542481899D-05  .200254360680D-01  .129640102386D-05  .515364442635D+04
     .482400000000D+06  .763684511185D-07 -.235365460108D+01 -.180676579475D-06
     .988869271380D+00  .366781250000D+03  .111853599110D+01 -.780211070351D-08
     .735744932444D-10  .100000000000D+01  .161600000000D+04  .000000000000D+00
     .240000000000D+01  .000000000000D+00 -.605359673500D-08  .100000000000D+03
     .475206000000D+06  .400000000000D+01
27 10 12 31 14  0  0.0  .222325325012D-03  .363797880709D-11  .000000000000D+00
     .210000000000D+02 -.113125000000D+03  .387373278509D-08 -.254067839320D+01
    -.557489693165D-05  .218449448003D-01  .319629907608D-05  .515374620819D+04
     .482400000000D+06  .234693288803D-06 -.142685647860D+01  .188127160072D-06
     .979912299429D+00  .319968750000D+03 -.132415142831D+01 -.765924760984D-08
    -.796461747257D-10  .100000000000D+01  .161600000000D+04  .000000000000D+00
     .240000000000D+01  .000000000000D+00 -.419095158577D-08  .210000000000D+02
     .475206000000D+06  .400000000000D+01
28 10 12 31 14  0  0.0  .121463090181D-04  .193267624127D-11  .000000000000D+00
     .150000000000D+02 -.541250000000D+02  .404802575938D-08 -.149289271919D+01
    -.257045030594D-05  .167230576044D-01  .103861093521D-04  .515368811417D+04
     .482400000000D+06  .329688191414D-06 -.292043622069D+00  .324100255966D-06
     .973123892870D+00  .180375000000D+03 -.192625141891D+01 -.756067207520D-08
     .485020203038D-09  .100000000000D+01  .161600000000D+04  .000000000000D+00
     .240000000000D+01  .000000000000D+00 -.107102096081D-07  .150000000000D+02
     .475206000000D+06  .400000000000D+01
29 10 12 31 14  0  0.0  .174641143531D-03  .284217094304D-11  .000000000000D+00
     .840000000000D+02  .368750000000D+01  .498199323430D-08  .623402635016D+00
     .212341547012D-06  .251368456520D-02  .646710395813D-05  .515359442520D+04
     .482400000000D+06 -.651925802231D-07  .751287716549D+00 -.186264514923D-08
     .961130894845D+00  .257562500000D+03 -.125946605359D+01 -.816926885427D-08
     .355371945525D-09  .100000000000D+01  .161600000000D+04  .000000000000D+00
     .240000000000D+01  .000000000000D+00 -.838190317154D-08  .840000000000D+02
     .475206000000D+06  .400000000000D+01
30 10 12 31 14  0  0.0  .309493858367D-03  .318323145621D-11  .000000000000D+00
     .670000000000D+02 -.595937500000D+02  .425339145654D-08 -.223654752900D+01
    -.306591391563D-05  .129989512498D-01  .102948397398D-04  .515535809135D+04
     .482400000000D+06  .184401869774D-06 -.373974217436D+00  .428408384323D-07
     .959121391073D+00  .173406250000D+03  .155578011640D+01 -.760424531877D-08
     .397873715894D-09  .100000000000D+01  .161600000000D+04  .000000000000D+00
     .240000000000D+01  .000000000000D+00 -.791624188423D-08  .670000000000D+02
     .475206000000D+06  .400000000000D+01
31 10 12 31 14  0  0.0  .245496630669D-04  .420641299570D-11  .000000000000D+00
     .260000000000D+02 -.104406250000D+03  .396695095372D-08  .126463472310D+01
    -.553205609322D-05  .783105136361D-02  .444427132607D-05  .515357076073D+04
     .482400000000D+06  .130385160446D-06 -.137113039601D+01 -.132247805595D-06
     .978514359782D+00  .300656250000D+03 -.102821894574D+01 -.798426114795D-08
    -.135005623526D-09  .100000000000D+01  .161600000000D+04  .000000000000D+00
     .240000000000D+01  .000000000000D+00 -.130385160446D-07  .260000000000D+02
     .475206000000D+06  .400000000000D+01
32 10 12 31 14  0  0.0 -.165086705238D-03 -.818545231596D-11  .000000000000D+00
     .960000000000D+02  .120281250000D+03  .433803783955D-08  .206053491792D+01
     .621937215328D-05  .124258466531D-01  .827386975288D-05  .515377845573D+04
     .482400000000D+06  .134110450745D-06  .289705166830D+01  .135973095894D-06
     .956861523500D+00  .213406250000D+03 -.849257065480D+00 -.775282293619D-08
    -.251796202608D-09  .100000000000D+01  .161600000000D+04  .000000000000D+00
     .340000000000D+01  .000000000000D+00 -.372529029846D-08  .960000000000D+02
     .475206000000D+06  .400000000000D+01
